{
  "norad_id": 46144,
  "name": "STARLINK-1606",
  "history": [
    {
      "epoch": "2026-05-02T12:00:02.998944Z",
      "apogee_km": 341.707490458788,
      "perigee_km": 335.97522112995284,
      "latitude_deg": -12.01632674195175,
      "longitude_deg": 138.92160332229386,
      "height_km": 339.493629076714,
      "semi_major_axis_km": 6716.97835579437,
      "eccentricity": 0.0004267,
      "inclination_deg": 53.0407,
      "raan_deg": 350.1874,
      "arg_perigee_deg": 169.0756,
      "mean_anomaly_deg": 25.8147,
      "mean_motion_rev_day": 15.7703684
    }
  ]
}